[
    {
        "Altitude(m)": 714804.8417483435,
        "Argument of Periapsis(deg)": 0.010251109067964361,
        "Eccentricity": 0.0,
        "Inclination(deg)": 45.0,
        "Latitude(deg)": -37.701446070773585,
        "Longitude(deg)": -80.44913675458547,
        "Mean Anomaly(deg)": -120.52920501726719,
        "RAAN(deg)": 149.99032325268763,
        "Satellite Name": "Constellation 1 674",
        "Satellite Number": 674,
        "Semi-Major Axis(m)": 7083131.272910544,
        "Time(s)": 171
    },
    {
        "Altitude(m)": 714816.1350170707,
        "Argument of Periapsis(deg)": 0.010311057074209765,
        "Eccentricity": 0.0,
        "Inclination(deg)": 45.0,
        "Latitude(deg)": -37.72889898263745,
        "Longitude(deg)": -80.38509125536783,
        "Mean Anomaly(deg)": -120.46850387701733,
        "RAAN(deg)": 149.99026666352205,
        "Satellite Name": "Constellation 1 674",
        "Satellite Number": 674,
        "Semi-Major Axis(m)": 7083131.272910544,
        "Time(s)": 172
    },
    {
        "Altitude(m)": 714827.4131146424,
        "Argument of Periapsis(deg)": 0.010371005080455171,
        "Eccentricity": 0.0,
        "Inclination(deg)": 45.0,
        "Latitude(deg)": -37.756312303197255,
        "Longitude(deg)": -80.32099559954933,
        "Mean Anomaly(deg)": -120.40780273676747,
        "RAAN(deg)": 149.9902100743565,
        "Satellite Name": "Constellation 1 674",
        "Satellite Number": 674,
        "Semi-Major Axis(m)": 7083131.272910544,
        "Time(s)": 173
    },
    {
        "Altitude(m)": 714838.6760001708,
        "Argument of Periapsis(deg)": 0.010430953086700577,
        "Eccentricity": 0.0,
        "Inclination(deg)": 45.0,
        "Latitude(deg)": -37.78368596525761,
        "Longitude(deg)": -80.25684977286296,
        "Mean Anomaly(deg)": -120.3471015965175,
        "RAAN(deg)": 149.99015348519092,
        "Satellite Name": "Constellation 1 674",
        "Satellite Number": 674,
        "Semi-Major Axis(m)": 7083131.272910544,
        "Time(s)": 174
    },
    {
        "Altitude(m)": 714849.9236328189,
        "Argument of Periapsis(deg)": 0.010490901092945983,
        "Eccentricity": 0.0,
        "Inclination(deg)": 45.0,
        "Latitude(deg)": -37.81101990158641,
        "Longitude(deg)": -80.19265376136735,
        "Mean Anomaly(deg)": -120.28640045626763,
        "RAAN(deg)": 149.99009689602534,
        "Satellite Name": "Constellation 1 674",
        "Satellite Number": 674,
        "Semi-Major Axis(m)": 7083131.272910544,
        "Time(s)": 175
    },
    {
        "Altitude(m)": 714861.1559718058,
        "Argument of Periapsis(deg)": 0.010550849099191389,
        "Eccentricity": 0.0,
        "Inclination(deg)": 45.0,
        "Latitude(deg)": -37.83831404491512,
        "Longitude(deg)": -80.128407551448,
        "Mean Anomaly(deg)": -120.22569931601777,
        "RAAN(deg)": 149.99004030685978,
        "Satellite Name": "Constellation 1 674",
        "Satellite Number": 674,
        "Semi-Major Axis(m)": 7083131.272910544,
        "Time(s)": 176
    },
    {
        "Altitude(m)": 714872.3729764014,
        "Argument of Periapsis(deg)": 0.010610797105436795,
        "Eccentricity": 0.0,
        "Inclination(deg)": 45.0,
        "Latitude(deg)": -37.86556832793939,
        "Longitude(deg)": -80.06411112981858,
        "Mean Anomaly(deg)": -120.16499817576783,
        "RAAN(deg)": 149.98998371769423,
        "Satellite Name": "Constellation 1 674",
        "Satellite Number": 674,
        "Semi-Major Axis(m)": 7083131.272910544,
        "Time(s)": 177
    },
    {
        "Altitude(m)": 714883.5746059278,
        "Argument of Periapsis(deg)": 0.0106707451116822,
        "Eccentricity": 0.0,
        "Inclination(deg)": 45.0,
        "Latitude(deg)": -37.89278268331921,
        "Longitude(deg)": -79.99976465162011,
        "Mean Anomaly(deg)": -120.1042970355179,
        "RAAN(deg)": 149.98992712852862,
        "Satellite Name": "Constellation 1 674",
        "Satellite Number": 674,
        "Semi-Major Axis(m)": 7083131.272910544,
        "Time(s)": 178
    },
    {
        "Altitude(m)": 714894.760819753,
        "Argument of Periapsis(deg)": 0.010730693117927606,
        "Eccentricity": 0.0,
        "Inclination(deg)": 45.0,
        "Latitude(deg)": -37.919957043679354,
        "Longitude(deg)": -79.93536776803272,
        "Mean Anomaly(deg)": -120.04359589526807,
        "RAAN(deg)": 149.98987053936307,
        "Satellite Name": "Constellation 1 674",
        "Satellite Number": 674,
        "Semi-Major Axis(m)": 7083131.272910544,
        "Time(s)": 179
    },
    {
        "Altitude(m)": 714905.9315773053,
        "Argument of Periapsis(deg)": 0.01079064112417301,
        "Eccentricity": 0.0,
        "Inclination(deg)": 45.0,
        "Latitude(deg)": -37.94709134160996,
        "Longitude(deg)": -79.87092063486106,
        "Mean Anomaly(deg)": -119.98289475501811,
        "RAAN(deg)": 149.9898139501975,
        "Satellite Name": "Constellation 1 674",
        "Satellite Number": 674,
        "Semi-Major Axis(m)": 7083131.272910544,
        "Time(s)": 180
    },
    {
        "Altitude(m)": 714917.0868380641,
        "Argument of Periapsis(deg)": 0.010850589130418416,
        "Eccentricity": 0.0,
        "Inclination(deg)": 45.0,
        "Latitude(deg)": -37.974185509666725,
        "Longitude(deg)": -79.80642324014659,
        "Mean Anomaly(deg)": -119.92219361476826,
        "RAAN(deg)": 149.98975736103193,
        "Satellite Name": "Constellation 1 674",
        "Satellite Number": 674,
        "Semi-Major Axis(m)": 7083131.272910544,
        "Time(s)": 181
    },
    {
        "Altitude(m)": 714928.2265615572,
        "Argument of Periapsis(deg)": 0.01091053713666382,
        "Eccentricity": 0.0,
        "Inclination(deg)": 45.0,
        "Latitude(deg)": -38.00123948037143,
        "Longitude(deg)": -79.74187557226607,
        "Mean Anomaly(deg)": -119.86149247451833,
        "RAAN(deg)": 149.98970077186638,
        "Satellite Name": "Constellation 1 674",
        "Satellite Number": 674,
        "Semi-Major Axis(m)": 7083131.272910544,
        "Time(s)": 182
    },
    {
        "Altitude(m)": 714939.350707371,
        "Argument of Periapsis(deg)": 0.010970485142909228,
        "Eccentricity": 0.0,
        "Inclination(deg)": 45.0,
        "Latitude(deg)": -38.02825318621222,
        "Longitude(deg)": -79.67727761993353,
        "Mean Anomaly(deg)": -119.80079133426844,
        "RAAN(deg)": 149.98964418270077,
        "Satellite Name": "Constellation 1 674",
        "Satellite Number": 674,
        "Semi-Major Axis(m)": 7083131.272910544,
        "Time(s)": 183
    },
    {
        "Altitude(m)": 714950.4592351385,
        "Argument of Periapsis(deg)": 0.011030433149154634,
        "Eccentricity": 0.0,
        "Inclination(deg)": 45.0,
        "Latitude(deg)": -38.055226559644225,
        "Longitude(deg)": -79.61262937220094,
        "Mean Anomaly(deg)": -119.74009019401855,
        "RAAN(deg)": 149.98958759353522,
        "Satellite Name": "Constellation 1 674",
        "Satellite Number": 674,
        "Semi-Major Axis(m)": 7083131.272910544,
        "Time(s)": 184
    },
    {
        "Altitude(m)": 714961.5521045523,
        "Argument of Periapsis(deg)": 0.01109038115540004,
        "Eccentricity": 0.0,
        "Inclination(deg)": 45.0,
        "Latitude(deg)": -38.08215953308974,
        "Longitude(deg)": -79.54793098655762,
        "Mean Anomaly(deg)": -119.67938905376863,
        "RAAN(deg)": 149.98953100436967,
        "Satellite Name": "Constellation 1 674",
        "Satellite Number": 674,
        "Semi-Major Axis(m)": 7083131.272910544,
        "Time(s)": 185
    },
    {
        "Altitude(m)": 714972.6292753544,
        "Argument of Periapsis(deg)": 0.011150329161645444,
        "Eccentricity": 0.0,
        "Inclination(deg)": 45.0,
        "Latitude(deg)": -38.10905203893877,
        "Longitude(deg)": -79.48318211654198,
        "Mean Anomaly(deg)": -119.61868791351878,
        "RAAN(deg)": 149.98947441520409,
        "Satellite Name": "Constellation 1 674",
        "Satellite Number": 674,
        "Semi-Major Axis(m)": 7083131.272910544,
        "Time(s)": 186
    },
    {
        "Altitude(m)": 714983.6907073391,
        "Argument of Periapsis(deg)": 0.01121027716789085,
        "Eccentricity": 0.0,
        "Inclination(deg)": 45.0,
        "Latitude(deg)": -38.135904009549506,
        "Longitude(deg)": -79.41838292032692,
        "Mean Anomaly(deg)": -119.55798677326881,
        "RAAN(deg)": 149.98941782603853,
        "Satellite Name": "Constellation 1 674",
        "Satellite Number": 674,
        "Semi-Major Axis(m)": 7083131.272910544,
        "Time(s)": 187
    },
    {
        "Altitude(m)": 714994.7363603624,
        "Argument of Periapsis(deg)": 0.011270225174136258,
        "Eccentricity": 0.0,
        "Inclination(deg)": 45.0,
        "Latitude(deg)": -38.1627153772485,
        "Longitude(deg)": -79.35353338833241,
        "Mean Anomaly(deg)": -119.49728563301895,
        "RAAN(deg)": 149.98936123687292,
        "Satellite Name": "Constellation 1 674",
        "Satellite Number": 674,
        "Semi-Major Axis(m)": 7083131.272910544,
        "Time(s)": 188
    },
    {
        "Altitude(m)": 715005.7661943194,
        "Argument of Periapsis(deg)": 0.011330173180381662,
        "Eccentricity": 0.0,
        "Inclination(deg)": 45.0,
        "Latitude(deg)": -38.18948607433145,
        "Longitude(deg)": -79.28863351132352,
        "Mean Anomaly(deg)": -119.43658449276904,
        "RAAN(deg)": 149.98930464770737,
        "Satellite Name": "Constellation 1 674",
        "Satellite Number": 674,
        "Semi-Major Axis(m)": 7083131.272910544,
        "Time(s)": 189
    }
]